OBJECT_NAME,OBJECT_ID,EPOCH,MEAN_MOTION,ECCENTRICITY,INCLINATION,RA_OF_ASC_NODE,ARG_OF_PERICENTER,MEAN_ANOMALY,EPHEMERIS_TYPE,CLASSIFICATION_TYPE,NORAD_CAT_ID,ELEMENT_SET_NO,REV_AT_EPOCH,BSTAR,MEAN_MOTION_DOT,MEAN_MOTION_DDOT
TIANMU-1 20,2023-208B,2026-06-25T13:12:12.269664,15.32879979,.00055793,97.4449,293.5372,297.5653,62.5021,0,U,58661,999,13870,.30618457E-3,.965E-4,0
TIANMU-1 21,2023-208C,2026-06-25T14:11:04.675776,15.35214849,.0005664,97.4507,296.2955,286.7716,73.2906,0,U,58662,999,13885,.34136655E-3,.11598E-3,0
TIANMU-1 22,2023-208D,2026-06-25T13:39:03.822336,15.31165511,.00024871,97.4503,292.8408,327.4657,32.6431,0,U,58663,999,13861,.29153413E-3,.87E-4,0
TIANMU-1 15,2024-004A,2026-06-25T11:40:16.908384,15.26956768,.0005858,97.4669,2.6785,324.9927,35.0926,0,U,58700,999,13704,.23131758E-3,.6049E-4,0
TIANMU-1 16,2024-004B,2026-06-25T14:35:26.320992,15.26827570,.00049929,97.4616,2.0280,336.7537,23.3475,0,U,58701,999,13706,.24765394E-3,.6456E-4,0
TIANMU-1 17,2024-004C,2026-06-25T14:14:30.037344,15.26826478,.00046881,97.4643,2.5016,344.3242,15.7850,0,U,58702,999,13705,.25405803E-3,.6625E-4,0
TIANMU-1 18,2024-004D,2026-06-24T10:54:22.598208,15.27066947,.00033273,97.4664,1.6230,349.3855,10.7313,0,U,58703,999,13688,.17799392E-3,.4651E-4,0
INSAT-3DS,2024-033A,2026-06-25T12:59:26.013120,1.00270820,.00014377,0.0585,102.2359,341.1367,107.2422,0,U,58990,999,4715,0,-.145E-5,0
METEOR-M2 4,2024-039A,2026-06-25T14:59:14.705664,14.22430351,.0007748,98.7013,135.8166,138.2102,221.9669,0,U,59051,999,12046,.23287527E-4,.8E-7,0
GOES 19,2024-119A,2026-06-25T12:14:31.519392,1.00271645,.00004793,0.0443,168.6712,333.6942,239.7212,0,U,60133,999,704,0,-.238E-5,0
MTG-S1,2025-143A,2026-06-24T17:46:37.650720,1.00400949,.00005853,0.5970,340.6178,288.6722,269.7793,0,U,64723,999,349,0,.23E-6,0
METOP-SGA1,2025-172A,2026-06-25T10:55:38.088480,14.19816312,.00081749,98.6642,236.0073,29.4111,330.7524,0,U,65159,999,4496,.36944151E-4,.35E-6,0
FENGYUN 3H,2025-219A,2026-06-25T10:14:12.472800,14.19921740,.00015321,98.6769,117.0355,71.3059,288.8284,0,U,65815,999,3855,.3833318E-4,.38E-6,0
