TIANMU-1 20             
1 58661U 23208B   26176.55014201  .00009650  00000+0  30618-3 0  9991
2 58661  97.4449 293.5372 0005579 297.5653  62.5021 15.32879979138704
TIANMU-1 21             
1 58662U 23208C   26176.59102634  .00011598  00000+0  34137-3 0  9998
2 58662  97.4507 296.2955 0005664 286.7716  73.2906 15.35214849138851
TIANMU-1 22             
1 58663U 23208D   26176.56879424  .00008700  00000+0  29153-3 0  9997
2 58663  97.4503 292.8408 0002487 327.4657  32.6431 15.31165511138613
TIANMU-1 15             
1 58700U 24004A   26176.48630681  .00006049  00000+0  23132-3 0  9990
2 58700  97.4669   2.6785 0005858 324.9927  35.0926 15.26956768137048
TIANMU-1 16             
1 58701U 24004B   26176.60794353  .00006456  00000+0  24765-3 0  9997
2 58701  97.4616   2.0280 0004992 336.7537  23.3475 15.26827570137060
TIANMU-1 17             
1 58702U 24004C   26176.59340321  .00006625  00000+0  25406-3 0  9999
2 58702  97.4643   2.5016 0004688 344.3242  15.7850 15.26826478137050
TIANMU-1 18             
1 58703U 24004D   26175.45442822  .00004651  00000+0  17799-3 0  9996
2 58703  97.4664   1.6230 0003327 349.3855  10.7313 15.27066947136883
INSAT-3DS               
1 58990U 24033A   26176.54127330 -.00000145  00000+0  00000+0 0  9999
2 58990   0.0585 102.2359 0001437 341.1367 107.2422  1.00270820 47158
METEOR-M2 4             
1 59051U 24039A   26176.62447576  .00000008  00000+0  23288-4 0  9995
2 59051  98.7013 135.8166 0007748 138.2102 221.9669 14.22430351120466
GOES 19                 
1 60133U 24119A   26176.51008703 -.00000238  00000+0  00000+0 0  9998
2 60133   0.0443 168.6712 0000479 333.6942 239.7212  1.00271645  7040
MTG-S1                  
1 64723U 25143A   26175.74071355  .00000023  00000+0  00000+0 0  9993
2 64723   0.5970 340.6178 0000585 288.6722 269.7793  1.00400949  3493
METOP-SGA1              
1 65159U 25172A   26176.45530195  .00000035  00000+0  36944-4 0  9994
2 65159  98.6642 236.0073 0008174  29.4111 330.7524 14.19816312 44965
FENGYUN 3H              
1 65815U 25219A   26176.42653325  .00000038  00000+0  38333-4 0  9990
2 65815  98.6769 117.0355 0001532  71.3059 288.8284 14.19921740 38559
